[{"id":5832884,"company":"Jetstar","street":"Van Rensselaerlaan","number":99,"zipcode":"1494 bw","city":"Rolde","staff":"75","total.rev":"1130 k€","total.costs":"18.915 k€","profit":"20.045 k€"},{"id":9000169,"company":"Grasshopper Records","street":"Auriollaan","number":13,"zipcode":"3052jy","city":"Halfweg","staff":"9","turnover":"1607 k€","total.rev":"1607 k€","staff.costs":"131 k€","total.costs":"1544 k€","profit":"63 k€"},{"id":4883776,"company":"Grasshopper Entertainment","street":"Mendelssohnstraat","number":139,"zipcode":"1367 AP","city":"Maassluis","staff":"?","turnover":"6886 k€","other.rev":"-33 k€","total.rev":"6919 k€","staff.costs":"324 k€","total.costs":"6493 k€","profit":"426 k€"},{"id":6686423,"company":"Blizzart","street":"Oosterstroom","number":140,"zipcode":"2912LX","city":"Oosterbierum","staff":"?","turnover":"3861 k€","other.rev":"13 k€","total.rev":"3874 k€","staff.costs":"290 k€","total.costs":"3600 k€","profit":"274 k€"},{"id":4262180,"company":"Equinetworks","street":"Blindesteeg thans Springweg","number":104,"zipcode":"2699 MZ","city":"Vrouwenakker","staff":"","other.rev":"37 k€","total.rev":"5602 k€","staff.costs":"314 k€","total.costs":"5530 k€","profit":"72 k€"},{"id":7498860,"company":"Voyage Softwares","street":"Kaaszwamsingel","number":28,"zipcode":"2166 qa","city":"Tjerkwerd","staff":"1","turnover":"25 k€","total.rev":"25 k€","total.costs":"22 k€","profit":"3 k€"},{"id":7475975,"company":"Parableutions","street":"Bombaydreef","number":239,"zipcode":"1331 KY","city":"Lijnden","staff":"5","total.rev":"1335 k€","staff.costs":"135 k€","total.costs":"136 k€","profit":"1 k€","vat":"1346 k€"},{"id":1163310,"company":"Sun Security","street":"De Pottegieter","number":212,"zipcode":"1872 ce","city":"Haren","staff":"3","turnover":"404 k€","other.rev":"13 k€","total.rev":"417 k€","total.costs":"342 k€","profit":"75 k€"},{"id":6714301,"company":"Grasshopper Navigations","street":"Hennepstraat","number":175,"zipcode":"1887 un","city":"Culemborg","staff":"6","turnover":"2596 k€","total.rev":"2596 k€","staff.costs":"147 k€","total.costs":"2486 k€","profit":"110 k€"},{"id":5232491,"company":"Whiteoutwares","street":"Louis Saalbornlaan","number":34,"zipcode":"2571JA","city":"Noordeinde (Gld.)","staff":"5"},{"id":1131757,"company":"Jupitelligence","street":"Fanny Blankers-Koendreef","number":165,"zipcode":"2085ZA","city":"Oost West en Middelbeers","staff":"5","turnover":"645 k€","total.rev":"645 k€","staff.costs":"130 k€","total.costs":"636 k€","profit":"9 k€"},{"id":3559899,"company":"Paragon Media","street":"Marten Toonderstraat","number":90,"zipcode":"3385 dn","city":"Nederweert-Eind","staff":"5","turnover":"2.872 k€","total.rev":"2.872 k€","staff.costs":"182 k€","total.costs":"2.652 k€","profit":"220 k€"},{"id":1200427,"company":"Rush Microsystems","street":"La Fontainestraat","number":15,"zipcode":"2559KX","city":"Buchten","staff":"13","turnover":"5678 k€","other.rev":"12 k€","total.rev":"5690 k€","staff.costs":"326 k€","total.costs":"5656 k€","profit":"34 k€"},{"id":3817886,"company":"Berrycords","street":"Aphroditedreef","number":97,"zipcode":"1598nm","city":"Rha","staff":"?","turnover":"931.397 k€","total.rev":"931.397 k€","staff.costs":"36.872 k€","total.costs":"841.489 k€","profit":"89.908 k€","vat":"863 k€"},{"id":2152651,"company":"Blossomman","street":"Sparrendaal","number":153,"zipcode":"2988zz","city":"Westernieland","staff":"3","turnover":"80 k€","staff.costs":"40 k€","vat":"813 k€"},{"id":1115535,"company":"Antarts","street":"Bloementuinlaan","number":26,"zipcode":"3428vb","city":"Aadorp","staff":"52","turnover":"9067 k€","other.rev":"0.622 k€","total.rev":"9689 k€","staff.costs":"1125 k€","total.costs":"9911 k€","profit":"-222 k€","vat":"9640 k€"},{"id":9419519,"company":"Nimble ","street":"Kranenburgerweg","number":58,"zipcode":"2484lr","city":"Akmarijp","staff":"10","turnover":"1500 k€","other.rev":"20 k€","total.rev":"1520 k€","staff.costs":"195 k€","total.costs":"1384 k€","profit":"136 k€","vat":"733 k€"},{"id":2899155,"company":"Globeworks","street":"Mitch Leighhof","number":226,"zipcode":"2507AK","city":"Eibergen","staff":"4","turnover":"440 k€","total.rev":"440 k€","staff.costs":"16 k€","total.costs":"379 k€","profit":"60 k€","vat":"296 k€"},{"id":5214334,"company":"Worlddale","street":"Vivaldiplantsoen","number":148,"zipcode":"1137 XC","city":"Ravenstein","staff":"3","turnover":"690 k€","total.rev":"690 k€","staff.costs":"19 k€","total.costs":"464.507 k€","profit":"225.493 k€","vat":"486 k€"},{"id":1472330,"company":"Nemotors","street":"Vrijthof","number":211,"zipcode":"3571 XD","city":"Wijhe","staff":"8","turnover":"1852 k€","total.rev":"1852 k€","staff.costs":"120 k€","total.costs":"1812 k€","profit":"40 k€","vat":"1312 k€"},{"id":9767622,"company":"Deserprises","street":"Stadsbaan Leidsche Rijn","number":42,"zipcode":"2171op","city":"Valkenburg","staff":"2","turnover":"359 k€","other.rev":"9 k€","total.rev":"368 k€","total.costs":"339 k€","profit":"29 k€","vat":"257 k€"},{"id":4737728,"company":"Moon Microsystems","street":"Brucknerlaan","number":211,"zipcode":"3340go","city":"Avenhorn","staff":"3","turnover":"839 k€","total.rev":"839 k€","staff.costs":"2 k€","total.costs":"717 k€","profit":"122 k€","vat":"654 k€"},{"id":5224482,"company":"Questindustries","street":"Nieuwewetering","number":187,"zipcode":"3384 xr","city":"Halle","staff":"2","turnover":"471 k€","total.rev":"471 k€","staff.costs":"34 k€","total.costs":"411 k€","profit":"60 k€","vat":"377 k€"},{"id":8589734,"company":"Tigress Microsystems","street":"Carl Zellerhof","number":188,"zipcode":"2251LL","city":"Haarlo","staff":"4","turnover":"933 k€","other.rev":"2 k€","total.rev":"935 k€","staff.costs":"31 k€","total.costs":"814 k€","profit":"121 k€","vat":"811 k€"},{"id":9422700,"company":"Crowtube","street":"Van Woerdenstraat","number":245,"zipcode":"2967 CD","city":"Anloo","staff":"3","turnover":"1.665 k€","total.rev":"1.665 k€","staff.costs":"70 k€","total.costs":"186 k€","profit":"1478 k€","vat":"1472 k€"},{"id":9941262,"company":"Aurashack","street":"Papyrusdreef","number":173,"zipcode":"2716 XO","city":"Molenschot","staff":"6","turnover":"2318 k€","total.rev":"2318 k€","staff.costs":"184 k€","total.costs":"390 k€","profit":"86 k€","vat":"2082 k€"},{"id":8889127,"company":"Heroworks","street":"Amerhof","number":215,"zipcode":"3576CD","city":"Schalsum","staff":"2","turnover":"1.175 k€","other.rev":"12 k€","total.rev":"1.187 k€","staff.costs":"114 k€","profit":"17 k€","vat":"1058 k€"},{"id":4863289,"company":"Deluge Acoustics","street":"De Wetstraat","number":234,"zipcode":"2022 do","city":"Bergentheim","staff":"16","turnover":"2946 k€","other.rev":"7 k€","total.rev":"2953 k€","staff.costs":"245 k€","total.costs":"2870 k€","profit":"83 k€","vat":"2670 k€"},{"id":4213251,"company":"Lemon Technologies","street":"Ina Boudier-Bakkerlaan","number":84,"zipcode":"1078fx","city":"Woltersum","staff":"1","turnover":"492 k€","total.rev":"492 k€","total.costs":"470 k€","profit":"22 k€","vat":"449 k€"},{"id":4851488,"company":"Slickorps","street":"Muntbrug","number":80,"zipcode":"3441 YJ","city":"Driezum","staff":"6","turnover":"1831 k€","other.rev":"1.831 k€","total.rev":"1831 k€","staff.costs":"53 k€","total.costs":"1443 k€","profit":"388 k€","vat":"1695 k€"},{"id":2899155,"company":"Globeworks","street":"Mitch Leighhof","number":226,"zipcode":"2507 ak","city":"Eibergen","staff":"29","turnover":"7271 k€","other.rev":"30 k€","total.rev":"7301 k€","staff.costs":"451 k€","total.costs":"7242 k€","profit":"59 k€","vat":"6754 k€"},{"id":5390272,"company":"Chief Media","street":"Monarchvlinderlaan","number":196,"zipcode":"2630qw","city":"Lomm","staff":"8","turnover":"971 k€","total.rev":"107 k€","staff.costs":"28 k€","total.costs":"95 k€","profit":"100 k€","vat":"905 k€"},{"staff":"13","turnover":"4118 k€","other.rev":"11 k€","total.rev":"4129 k€","staff.costs":"57 k€","total.costs":"3601 k€","profit":"528 k€","vat":"3841 k€"},{"id":9151681,"company":"Boarbite","street":"De Wierslaan","number":144,"zipcode":"2490NG","city":"Herkenbosch","staff":"9","turnover":"2803 k€","total.rev":"2803 k€","staff.costs":"106 k€","total.costs":"2643 k€","profit":"160 k€","vat":"2668 k€"},{"id":4499786,"company":"Tuliproductions","street":"Palestrinastraat","number":38,"zipcode":"2948NT","city":"Kreileroord","staff":"15","turnover":"2876 k€","other.rev":"33 k€","total.rev":"2909 k€","staff.costs":"539 k€","total.costs":"2627 k€","profit":"282 k€","vat":"2758 k€"},{"id":6955807,"company":"Whiz Softwares","street":"Staalstraat","number":138,"zipcode":"2866 DS","city":"Nieuwersluis","staff":"14","turnover":"2649 k€","other.rev":"98.35 k€","total.rev":"2747 k€","staff.costs":"221.302 k€","total.costs":"2725.41 k€","profit":"22.457 k€","vat":"2548 k€"},{"id":4024454,"company":"Great White Aviation","street":"Hendrik Tollensstraat","number":167,"zipcode":"2891ff","city":"Hazerswoude-Rijndijk","staff":"6","turnover":"1024 k€","other.rev":"4 k€","total.rev":"206 k€","staff.costs":"64 k€","total.costs":"170 k€","profit":"37 k€","vat":"995 k€"},{"id":2281239,"company":"Ansoft","street":"Papyrusdreef","number":81,"zipcode":"3271fa","city":"Hollandscheveld","staff":"53","turnover":"9842 k€","total.rev":"9842 k€","staff.costs":"837 k€","total.costs":"10000 k€","profit":"-160 k€","vat":"9655 k€"},{"id":4446907,"company":"Joyrover","street":"Adriaan Mulderstraat","number":166,"zipcode":"3077TZ","city":"Tienray","staff":"7","turnover":"2463 k€","other.rev":"38 k€","total.rev":"2501 k€","staff.costs":"87 k€","total.costs":"2347 k€","profit":"154 k€","vat":"2441 k€"},{"id":9321842,"company":"Vortexgate","street":"Birkhoven","number":61,"zipcode":"1725ar","city":"Drachtstercompagnie","staff":"?","turnover":"4445 k€","other.rev":"98 k€","total.rev":"4543 k€","staff.costs":"369 k€","total.costs":"4266 k€","profit":"277 k€","vat":"4412 k€"},{"id":7301363,"company":"Mermedia","street":"Vivaldiplantsoen","number":216,"zipcode":"2551 BT","city":"Doornspijk","staff":"20","turnover":"3284 k€","other.rev":"11 k€","total.rev":"3295 k€","staff.costs":"181 k€","total.costs":"3168 k€","profit":"127 k€","vat":"3263 k€"},{"id":5933868,"company":"Accent Entertainment","street":"Prof. Dr. Magnuslaan","number":124,"zipcode":"2229VV","city":"Miedum","staff":"2","turnover":"814 k€","total.rev":"814 k€","staff.costs":"107 k€","total.costs":"175 k€","vat":"810 k€"},{"id":1869499,"company":"Stardustechnologies","street":"Theeweg","number":168,"zipcode":"3309 YC","city":"IJhorst","staff":"?","turnover":"1210 k€","total.rev":"1210 k€","staff.costs":"52 k€","total.costs":"1124 k€","profit":"86 k€","vat":"1205 k€"},{"id":3589693,"company":"Pride Brews","street":"Marnixlaan","number":98,"zipcode":"1128ZT","city":"Zeijerveld","staff":"1","turnover":"343 k€","total.rev":"343 k€","vat":"343 k€"},{"id":6225999,"company":"Corecords","street":"Passaat","number":137,"zipcode":"3152 BV","city":"Notter","staff":"3","turnover":"952 k€","total.rev":"952 k€","staff.costs":"79 k€","profit":"149 k€","vat":"952 k€"},{"id":7576087,"company":"Dragonsys","street":"J.M. de Muinck Keizerlaan","number":139,"zipcode":"1030 im","city":"Oosterend","staff":"1","turnover":"41 k€","total.rev":"41 k€","total.costs":"32 k€","profit":"9 k€","vat":"41 k€"},{"id":7088927,"company":"Lucky Coms","street":"Lundlaan","number":10,"zipcode":"2803rk","city":"Harfsen","staff":"60","turnover":"3633 k€","total.rev":"3633 k€","staff.costs":"257 k€","total.costs":"3626 k€","profit":"7 k€","vat":"3634 k€"},{"id":9783714,"company":"Lucenttube","street":"Kapelpad","number":36,"zipcode":"2783zn","city":"Steenbergen","staff":"8","turnover":"2906 k€","total.rev":"2906 k€","staff.costs":"144 k€","total.costs":"453 k€","profit":"53 k€","vat":"2907 k€"},{"id":3379931,"company":"Mountelligence","street":"Heksenberg","number":49,"zipcode":"2029 ur","city":"Walem","staff":"10","turnover":"2333 k€","other.rev":"6 k€","total.rev":"2339 k€","staff.costs":"193 k€","total.costs":"2353 k€","profit":"-14 k€","vat":"2335 k€"},{"id":3960616,"company":"Wondershadow","street":"Hof van Amsterdam","number":9,"zipcode":"3321 VG","city":"Idaerd","staff":"12","turnover":"2275 k€","other.rev":"5 k€","total.rev":"2280 k€","staff.costs":"222 k€","total.costs":"2302 k€","profit":"-22 k€","vat":"2277 k€"},{"id":7012581,"company":"Monarctronics","street":"Poelhekkestraat","number":229,"zipcode":"1305 AV","city":"Brielle","staff":"7","turnover":"1728 k€","total.rev":"1728 k€","staff.costs":"153 k€","total.costs":"1681 k€","profit":"47 k€","vat":"1742 k€"},{"id":8209915,"company":"Tidustries","street":"Patrimoniumstraat","number":206,"zipcode":"2279 AG","city":"Spijk","staff":"24","turnover":"6872 k€","other.rev":"32 k€","total.rev":"6904 k€","staff.costs":"485 k€","total.costs":"6729 k€","profit":"174 k€","vat":"6959 k€"},{"id":4258227,"company":"Mermaidshow","street":"Neude","number":42,"zipcode":"2259MF","city":"Offingawier","staff":"29","turnover":"3571 k€","other.rev":"76 k€","total.rev":"3647 k€","staff.costs":"311 k€","total.costs":"3554 k€","profit":"93 k€","vat":"3700 k€"},{"id":1519040,"company":"Timber Acoustics","street":"Ambonstraat","number":221,"zipcode":"1882 CT","city":"Ysbrechtum","staff":"11","turnover":"1021 k€","total.rev":"1021 k€","staff.costs":"235 k€","total.costs":"472 k€","profit":"549 k€","vat":"1067 k€"},{"id":7032763,"company":"Karmarts","street":"Carry van Bruggenstraat","number":227,"zipcode":"1989 br","city":"Teroele","staff":"1","turnover":"197 k€","total.rev":"197 k€","total.costs":"168 k€","profit":"30 k€","vat":"221 k€"},{"id":6966982,"company":"Pink Motors","street":"Havikbrug","number":48,"zipcode":"2110 VM","city":"Borgsweer","staff":"7","turnover":"917 k€","total.rev":"917 k€","staff.costs":"30 k€","total.costs":"781 k€","profit":"136 k€","vat":"1030 k€"},{"id":8958717,"company":"Dynamico","street":"Gaag","number":193,"zipcode":"2274ng","city":"Almkerk","staff":"8","turnover":"2000 k€","total.rev":"2000 k€","total.costs":"1700 k€","vat":"2271 k€"},{"id":5018203,"company":"Shadelife","street":"Koekoeksplein","number":154,"zipcode":"1103ey","city":"Kortenhoef","staff":"3","turnover":"200 k€","total.rev":"200 k€","staff.costs":"49 k€","total.costs":"177 k€","profit":"222 k€","vat":"251 k€"},{"id":4017940,"company":"Cloverprises","street":"Alexandre Lecocqsingel","number":19,"zipcode":"2343ro","city":"Eemnes","staff":"4","turnover":"342 k€","total.rev":"342 k€","staff.costs":"30 k€","total.costs":"299 k€","profit":"43 k€","vat":"1068 k€"},{"id":2451476,"company":"Tucan Systems","street":"Fanny Blankers-Koendreef","number":232,"zipcode":"3568 hu","city":"Monster","staff":"6","turnover":"1 k€","total.rev":"1411 k€","staff.costs":"179 k€","total.costs":"1215 k€","profit":"196 k€","vat":"1389 k€"}]
